{
    "links": {
        "self": "http://www.neowsapp.com/rest/v1/neo/3774112?api_key=iIulBulltgU6a56xZRHN4H3l9WmuAYTsLGpBGhQ2"
    },
    "id": "3774112",
    "neo_reference_id": "3774112",
    "name": "(2017 HF4)",
    "designation": "2017 HF4",
    "nasa_jpl_url": "http://ssd.jpl.nasa.gov/sbdb.cgi?sstr=3774112",
    "absolute_magnitude_h": 23.8,
    "estimated_diameter": {
        "kilometers": {
            "estimated_diameter_min": 0.046190746,
            "estimated_diameter_max": 0.1032856481
        },
        "meters": {
            "estimated_diameter_min": 46.1907460282,
            "estimated_diameter_max": 103.2856480504
        },
        "miles": {
            "estimated_diameter_min": 0.0287015901,
            "estimated_diameter_max": 0.0641787064
        },
        "feet": {
            "estimated_diameter_min": 151.544447199,
            "estimated_diameter_max": 338.8636855496
        }
    },
    "is_potentially_hazardous_asteroid": false,
    "close_approach_data": [
        {
            "close_approach_date": "2017-04-13",
            "close_approach_date_full": "2017-Apr-13 15:00",
            "epoch_date_close_approach": 1492095600000,
            "relative_velocity": {
                "kilometers_per_second": "13.6938911345",
                "kilometers_per_hour": "49298.0080841896",
                "miles_per_hour": "30631.8650787566"
            },
            "miss_distance": {
                "astronomical": "0.1131311825",
                "lunar": "44.0080299925",
                "kilometers": "16924183.932581275",
                "miles": "10516200.253020595"
            },
            "orbiting_body": "Earth"
        }
    ],
    "orbital_data": {
        "orbit_id": "4",
        "orbit_determination_date": "2017-05-05 06:19:25",
        "first_observation_date": "2017-04-25",
        "last_observation_date": "2017-05-04",
        "data_arc_in_days": 9,
        "observations_used": 15,
        "orbit_uncertainty": "8",
        "minimum_orbit_intersection": ".0914718",
        "jupiter_tisserand_invariant": "3.401",
        "epoch_osculation": "2457871.5",
        "eccentricity": ".5256334840664861",
        "semi_major_axis": "2.210520105067302",
        "inclination": "19.28413405734343",
        "ascending_node_longitude": "25.48416209582937",
        "orbital_period": "1200.439094934027",
        "perihelion_distance": "1.048596720641761",
        "perihelion_argument": "148.1744922271505",
        "aphelion_distance": "3.372443489492842",
        "perihelion_time": "2457833.703575082992",
        "mean_anomaly": "11.33477993806147",
        "mean_motion": ".2998902664193761",
        "equinox": "J2000",
        "orbit_class": {
            "orbit_class_type": "AMO",
            "orbit_class_description": "Near-Earth asteroid orbits similar to that of 1221 Amor",
            "orbit_class_range": "1.017 AU < q (perihelion) < 1.3 AU"
        }
    },
    "is_sentry_object": false
}